start=new Date('2021-11-29T00:00:00.000Z').valueOf();
sats=[{"CENTER_NAME":"EARTH","EPHEMERIS_TYPE":"0","OBJECT_NAME":"STARLINK-2183","EPOCH":"2021-11-28T10:01:08.567328","TIME_SYSTEM":"UTC","INCLINATION":"53.0585","TLE_LINE2":"2 47765  53.0585  19.9231 0001817  65.3232 294.7946 15.06592838 42330","SEMIMAJOR_AXIS":"6924.758","MEAN_ANOMALY":"294.7946","RA_OF_ASC_NODE":"19.9231","ECCENTRICITY":"0.00018170","COUNTRY_CODE":"US","MEAN_MOTION_DOT":"0.00019400","LAUNCH_DATE":"2021-03-04","TLE_LINE1":"1 47765U 21017AV  21332.41746027  .00019400  00000-0  13109-2 0  9992","DECAY_DATE":null,"FILE":"3226217","ELEMENT_SET_NO":"999","GP_ID":"190657960","REV_AT_EPOCH":"4233","RCS_SIZE":"LARGE","BSTAR":"0.00131090000000","MEAN_MOTION_DDOT":"0.0000000000000","SITE":"AFETR","ARG_OF_PERICENTER":"65.3232","REF_FRAME":"TEME","PERIAPSIS":"545.364","NORAD_CAT_ID":"47765","OBJECT_TYPE":"PAYLOAD","CLASSIFICATION_TYPE":"U","MEAN_MOTION":"15.06592838","OBJECT_ID":"2021-017AV","APOAPSIS":"547.881","PERIOD":"95.580","MEAN_ELEMENT_THEORY":"SGP4"},{"LAUNCH_DATE":"2021-03-04","MEAN_MOTION_DOT":"0.00001644","COUNTRY_CODE":"US","ECCENTRICITY":"0.00013910","RA_OF_ASC_NODE":"39.4098","MEAN_ANOMALY":"286.4047","FILE":"3226217","DECAY_DATE":null,"TLE_LINE1":"1 47766U 21017AW  21332.53383594  .00001644  00000-0  12922-3 0  9996","INCLINATION":"53.0571","TIME_SYSTEM":"UTC","EPOCH":"2021-11-28T12:48:43.425216","OBJECT_NAME":"STARLINK-2184","EPHEMERIS_TYPE":"0","CENTER_NAME":"EARTH","SEMIMAJOR_AXIS":"6925.363","TLE_LINE2":"2 47766  53.0571  39.4098 0001391  73.7095 286.4047 15.06395383 42056","OBJECT_TYPE":"PAYLOAD","NORAD_CAT_ID":"47766","PERIOD":"95.592","MEAN_ELEMENT_THEORY":"SGP4","APOAPSIS":"548.191","OBJECT_ID":"2021-017AW","MEAN_MOTION":"15.06395383","CLASSIFICATION_TYPE":"U","REV_AT_EPOCH":"4205","GP_ID":"190659212","ELEMENT_SET_NO":"999","PERIAPSIS":"546.264","REF_FRAME":"TEME","SITE":"AFETR","MEAN_MOTION_DDOT":"0.0000000000000","ARG_OF_PERICENTER":"73.7095","BSTAR":"0.00012922000000","RCS_SIZE":"LARGE"},{"RA_OF_ASC_NODE":"24.2962","MEAN_ANOMALY":"284.4708","COUNTRY_CODE":"US","ECCENTRICITY":"0.00012190","MEAN_MOTION_DOT":"0.00000435","LAUNCH_DATE":"2021-03-04","TLE_LINE1":"1 47767U 21017AX  21332.55918030  .00000435  00000-0  48112-4 0  9996","DECAY_DATE":null,"FILE":"3226217","CENTER_NAME":"EARTH","EPHEMERIS_TYPE":"0","OBJECT_NAME":"STARLINK-2185","EPOCH":"2021-11-28T13:25:13.177920","INCLINATION":"53.0569","TIME_SYSTEM":"UTC","TLE_LINE2":"2 47767  53.0569  24.2962 0001219  75.6417 284.4708 15.06393747 42339","SEMIMAJOR_AXIS":"6925.368","NORAD_CAT_ID":"47767","OBJECT_TYPE":"PAYLOAD","CLASSIFICATION_TYPE":"U","OBJECT_ID":"2021-017AX","MEAN_MOTION":"15.06393747","APOAPSIS":"548.077","PERIOD":"95.593","MEAN_ELEMENT_THEORY":"SGP4","GP_ID":"190658960","ELEMENT_SET_NO":"999","REV_AT_EPOCH":"4233","RCS_SIZE":"LARGE","BSTAR":"0.00004811200000","REF_FRAME":"TEME","SITE":"AFETR","ARG_OF_PERICENTER":"75.6417","MEAN_MOTION_DDOT":"0.0000000000000","PERIAPSIS":"546.389"},{"PERIAPSIS":"546.211","ARG_OF_PERICENTER":"65.4948","SITE":"AFETR","MEAN_MOTION_DDOT":"0.0000000000000","REF_FRAME":"TEME","BSTAR":"0.00000270480000","RCS_SIZE":"LARGE","REV_AT_EPOCH":"4214","ELEMENT_SET_NO":"999","GP_ID":"190686748","MEAN_ELEMENT_THEORY":"SGP4","PERIOD":"95.593","APOAPSIS":"548.292","MEAN_MOTION":"15.06387590","OBJECT_ID":"2021-017AY","CLASSIFICATION_TYPE":"U","OBJECT_TYPE":"PAYLOAD","NORAD_CAT_ID":"47768","SEMIMAJOR_AXIS":"6925.387","TLE_LINE2":"2 47768  53.0556  37.8061 0001503  65.4948 294.6198 15.06387590 42142","TIME_SYSTEM":"UTC","INCLINATION":"53.0556","EPOCH":"2021-11-28T21:27:32.045760","OBJECT_NAME":"STARLINK-2189","EPHEMERIS_TYPE":"0","CENTER_NAME":"EARTH","FILE":"3226391","DECAY_DATE":null,"TLE_LINE1":"1 47768U 21017AY  21332.89412090 -.00000241  00000-0  27048-5 0  9991","LAUNCH_DATE":"2021-03-04","MEAN_MOTION_DOT":"-0.00000241","COUNTRY_CODE":"US","ECCENTRICITY":"0.00015030","MEAN_ANOMALY":"294.6198","RA_OF_ASC_NODE":"37.8061"},{"MEAN_ANOMALY":"297.3469","RA_OF_ASC_NODE":"3.1735","LAUNCH_DATE":"2021-03-04","MEAN_MOTION_DOT":"0.00000042","ECCENTRICITY":"0.00015620","COUNTRY_CODE":"US","DECAY_DATE":null,"TLE_LINE1":"1 47769U 21017AZ  21332.80798480  .00000042  00000-0  21731-4 0  9993","FILE":"3226391","EPHEMERIS_TYPE":"0","CENTER_NAME":"EARTH","TIME_SYSTEM":"UTC","INCLINATION":"53.0551","EPOCH":"2021-11-28T19:23:29.886720","OBJECT_NAME":"STARLINK-2192","SEMIMAJOR_AXIS":"6925.365","TLE_LINE2":"2 47769  53.0551   3.1735 0001562  62.7679 297.3469 15.06394702 42647","NORAD_CAT_ID":"47769","OBJECT_TYPE":"PAYLOAD","MEAN_MOTION":"15.06394702","OBJECT_ID":"2021-017AZ","CLASSIFICATION_TYPE":"U","PERIOD":"95.592","MEAN_ELEMENT_THEORY":"SGP4","APOAPSIS":"548.312","REV_AT_EPOCH":"4264","ELEMENT_SET_NO":"999","GP_ID":"190686997","BSTAR":"0.00002173100000","RCS_SIZE":"LARGE","PERIAPSIS":"546.148","MEAN_MOTION_DDOT":"0.0000000000000","SITE":"AFETR","ARG_OF_PERICENTER":"62.7679","REF_FRAME":"TEME"},{"RCS_SIZE":"LARGE","BSTAR":"-0.00008741800000","REF_FRAME":"TEME","ARG_OF_PERICENTER":"62.6392","SITE":"AFETR","MEAN_MOTION_DDOT":"0.0000000000000","PERIAPSIS":"548.589","GP_ID":"190685747","ELEMENT_SET_NO":"999","REV_AT_EPOCH":"4240","CLASSIFICATION_TYPE":"U","OBJECT_ID":"2021-017BA","MEAN_MOTION":"15.05603336","APOAPSIS":"550.723","PERIOD":"95.643","MEAN_ELEMENT_THEORY":"SGP4","NORAD_CAT_ID":"47770","OBJECT_TYPE":"PAYLOAD","TLE_LINE2":"2 47770  53.0561  18.4588 0001540  62.6392 297.4753 15.05603336 42408","SEMIMAJOR_AXIS":"6927.791","CENTER_NAME":"EARTH","EPHEMERIS_TYPE":"0","EPOCH":"2021-11-28T17:54:20.165472","OBJECT_NAME":"STARLINK-2193","INCLINATION":"53.0561","TIME_SYSTEM":"UTC","TLE_LINE1":"1 47770U 21017BA  21332.74606673 -.00001554  00000-0 -87418-4 0  9995","DECAY_DATE":null,"FILE":"3226391","RA_OF_ASC_NODE":"18.4588","MEAN_ANOMALY":"297.4753","COUNTRY_CODE":"US","ECCENTRICITY":"0.00015400","MEAN_MOTION_DOT":"-0.00001554","LAUNCH_DATE":"2021-03-04"},{"DECAY_DATE":null,"TLE_LINE1":"1 47771U 21017BB  21332.82687163  .00000205  00000-0  32682-4 0  9991","FILE":"3226391","MEAN_ANOMALY":"302.7974","RA_OF_ASC_NODE":"18.0841","MEAN_MOTION_DOT":"0.00000205","LAUNCH_DATE":"2021-03-04","COUNTRY_CODE":"US","ECCENTRICITY":"0.00015640","SEMIMAJOR_AXIS":"6925.328","TLE_LINE2":"2 47771  53.0560  18.0841 0001564  57.3166 302.7974 15.06406777 42420","EPHEMERIS_TYPE":"0","CENTER_NAME":"EARTH","TIME_SYSTEM":"UTC","INCLINATION":"53.0560","EPOCH":"2021-11-28T19:50:41.708832","OBJECT_NAME":"STARLINK-2194","MEAN_MOTION":"15.06406777","OBJECT_ID":"2021-017BB","CLASSIFICATION_TYPE":"U","PERIOD":"95.592","MEAN_ELEMENT_THEORY":"SGP4","APOAPSIS":"548.276","NORAD_CAT_ID":"47771","OBJECT_TYPE":"PAYLOAD","BSTAR":"0.00003268200000","RCS_SIZE":"LARGE","PERIAPSIS":"546.110","SITE":"AFETR","MEAN_MOTION_DDOT":"0.0000000000000","ARG_OF_PERICENTER":"57.3166","REF_FRAME":"TEME","REV_AT_EPOCH":"4242","ELEMENT_SET_NO":"999","GP_ID":"190685997"},{"REV_AT_EPOCH":"4219","ELEMENT_SET_NO":"999","GP_ID":"190686249","PERIAPSIS":"546.418","MEAN_MOTION_DDOT":"0.0000000000000","SITE":"AFETR","ARG_OF_PERICENTER":"63.4417","REF_FRAME":"TEME","BSTAR":"0.00010644000000","RCS_SIZE":"LARGE","OBJECT_TYPE":"PAYLOAD","NORAD_CAT_ID":"47772","MEAN_ELEMENT_THEORY":"SGP4","PERIOD":"95.593","APOAPSIS":"548.062","MEAN_MOTION":"15.06391235","OBJECT_ID":"2021-017BC","CLASSIFICATION_TYPE":"U","TIME_SYSTEM":"UTC","INCLINATION":"53.0557","OBJECT_NAME":"STARLINK-2195","EPOCH":"2021-11-28T21:10:58.747296","EPHEMERIS_TYPE":"0","CENTER_NAME":"EARTH","SEMIMAJOR_AXIS":"6925.375","TLE_LINE2":"2 47772  53.0557  32.8335 0001187  63.4417 296.6694 15.06391235 42193","LAUNCH_DATE":"2021-03-04","MEAN_MOTION_DOT":"0.00001304","ECCENTRICITY":"0.00011870","COUNTRY_CODE":"US","MEAN_ANOMALY":"296.6694","RA_OF_ASC_NODE":"32.8335","FILE":"3226391","DECAY_DATE":null,"TLE_LINE1":"1 47772U 21017BC  21332.88262439  .00001304  00000-0  10644-3 0  9997"},{"DECAY_DATE":null,"TLE_LINE1":"1 47773U 21017BD  21332.87892824  .00000472  00000-0  50547-4 0  9996","FILE":"3226391","MEAN_ANOMALY":"296.5085","RA_OF_ASC_NODE":"32.8560","MEAN_MOTION_DOT":"0.00000472","LAUNCH_DATE":"2021-03-04","COUNTRY_CODE":"US","ECCENTRICITY":"0.00010800","SEMIMAJOR_AXIS":"6925.330","TLE_LINE2":"2 47773  53.0564  32.8560 0001080  63.6015 296.5085 15.06406094 42182","EPHEMERIS_TYPE":"0","CENTER_NAME":"EARTH","TIME_SYSTEM":"UTC","INCLINATION":"53.0564","EPOCH":"2021-11-28T21:05:39.399936","OBJECT_NAME":"STARLINK-2196","MEAN_MOTION":"15.06406094","OBJECT_ID":"2021-017BD","CLASSIFICATION_TYPE":"U","PERIOD":"95.592","MEAN_ELEMENT_THEORY":"SGP4","APOAPSIS":"547.943","NORAD_CAT_ID":"47773","OBJECT_TYPE":"PAYLOAD","BSTAR":"0.00005054700000","RCS_SIZE":"LARGE","PERIAPSIS":"546.447","SITE":"AFETR","MEAN_MOTION_DDOT":"0.0000000000000","ARG_OF_PERICENTER":"63.6015","REF_FRAME":"TEME","REV_AT_EPOCH":"4218","ELEMENT_SET_NO":"999","GP_ID":"190686498"},{"INCLINATION":"53.0565","TIME_SYSTEM":"UTC","OBJECT_NAME":"STARLINK-2197","EPOCH":"2021-11-28T21:00:20.950272","EPHEMERIS_TYPE":"0","CENTER_NAME":"EARTH","SEMIMAJOR_AXIS":"6925.335","TLE_LINE2":"2 47774  53.0565  32.8689 0001346  63.7813 296.3315 15.06404315 42197","LAUNCH_DATE":"2021-03-04","MEAN_MOTION_DOT":"0.00000640","COUNTRY_CODE":"US","ECCENTRICITY":"0.00013460","RA_OF_ASC_NODE":"32.8689","MEAN_ANOMALY":"296.3315","FILE":"3226391","DECAY_DATE":null,"TLE_LINE1":"1 47774U 21017BE  21332.87524248  .00000640  00000-0  61861-4 0  9997","REV_AT_EPOCH":"4219","GP_ID":"190685248","ELEMENT_SET_NO":"999","PERIAPSIS":"546.268","REF_FRAME":"TEME","ARG_OF_PERICENTER":"63.7813","SITE":"AFETR","MEAN_MOTION_DDOT":"0.0000000000000","BSTAR":"0.00006186100000","RCS_SIZE":"LARGE","OBJECT_TYPE":"PAYLOAD","NORAD_CAT_ID":"47774","MEAN_ELEMENT_THEORY":"SGP4","PERIOD":"95.592","APOAPSIS":"548.132","OBJECT_ID":"2021-017BE","MEAN_MOTION":"15.06404315","CLASSIFICATION_TYPE":"U"}];
